#aV2014  1 20  0  0  0.00000000     288 DD+AD WGS84 FIT  NGA
## 1776  86400.00000000   300.00000000 56677 0.0000000000000
+   32     1  2  3  4  5  6  7  8  9 10 11 12 13 14 15 16 17
+         18 19 20 21 22 23 24 25 26 27 28 29 30 31 32  0  0
+          0  0  0  0  0  0  0  0  0  0  0  0  0  0  0  0  0
+          0  0  0  0  0  0  0  0  0  0  0  0  0  0  0  0  0
+          0  0  0  0  0  0  0  0  0  0  0  0  0  0  0  0  0
++         2  2  2  2  2  2  2  2  2  2  2  2  2  2  2  2  2
++         2  2  2  2  2  2  2  2  2  2  2  2  2  2  2  0  0
++         0  0  0  0  0  0  0  0  0  0  0  0  0  0  0  0  0
++         0  0  0  0  0  0  0  0  0  0  0  0  0  0  0  0  0
++         0  0  0  0  0  0  0  0  0  0  0  0  0  0  0  0  0
%c cc cc ccc ccc cccc cccc cccc cccc ccccc ccccc ccccc ccccc
%c cc cc ccc ccc cccc cccc cccc cccc ccccc ccccc ccccc ccccc
%f  0.0000000  0.000000000  0.00000000000  0.000000000000000
%f  0.0000000  0.000000000  0.00000000000  0.000000000000000
%i    0    0    0    0      0      0      0      0         0
%i    0    0    0    0      0      0      0      0         0
/*      NGA, ST. LOUIS,MO.                                  
/*   EPHEMERIS COMPUTED FROM  1 DAYS OF DATA                
/*   EPOCHA SMOOTHER                                       
/* CCCCCCCCCCCCCCCCCCCCCCCCCCCCCCCCCCCCCCCCCCCCCCCCCCCCCCCCC
*  2014  1 20 12  5  0.00000000
P  1  22837.023019  13655.655681   -996.061562    101.688720                    
V  1  -2395.209830   1767.391678 -31645.210249      0.024410                    
P  2  -6636.900918 -18594.568340  18246.416785    473.841127                    
V  2  20649.286053   9180.961340  16600.738226      0.022030                    
P  3   2489.317105  17373.643493 -20433.826499    314.937138                    
V  3 -20004.782778  14856.158419  10643.281351      0.051480                    
P  4  10242.506052 -11998.179324  21080.200725      4.952499                    
V  4  23989.867672  13550.924138  -3644.338462      0.002270                    
P  5  -2977.098143 -26080.611657  -3487.018700   -391.713088                    
V  5   3260.704948  -4464.725340  31137.581371      0.013364                    
P  6  -6400.281273  19279.062905 -16847.868171    243.171959                    
V  6 -19172.002551  10430.226270  19556.869452      0.152266                    
P  7  23168.249653   3615.061130 -12710.107292    304.781447                    
V  7  13001.527757   9660.190989  25992.701530      0.041549                    
P  8  16717.533668  -4035.251017 -20274.546042     11.422697                    
V  8  20632.633622  15494.192037  13247.882504      0.002781                    
P  9  15805.573514  -6991.291103 -20742.550296    299.395265                    
V  9  21556.601655  12770.736524  12292.870548      0.027747                    
P 10   9593.019649 -20517.221797  13190.169832   -110.813598                    
V 10   3074.540305  17504.425588  24806.434605     -0.016046                    
P 11  20348.997537  13413.577538 -11293.921773   -457.182632                    
V 11 -14248.774165   1130.230195 -25192.545517     -0.033107                    
P 12 -11287.820800 -16438.500806  17604.705104    181.356695                    
V 12   1604.648984 -22278.675985 -19510.070472      0.023118                    
P 13  24278.727845  -3711.115586  10158.245668     38.007120                    
V 13 -11017.988470   7204.635829  28446.007838     -0.038358                    
P 14 -21067.422186  15024.165490   5857.000928    204.002908                    
V 14  -7530.265201   1004.598137 -30923.607245     -0.013068                    
P 15 -11956.329798 -10787.658328 -21198.059209   -158.628193                    
V 15  22360.881429 -14891.547885  -4757.708163     -0.020420                    
P 16   1630.522467  26009.858975  -4068.263818   -234.698250                    
V 16  -2450.978056   5069.946112  31998.623012      0.013858                    
P 17  20195.141426 -15919.059258   6372.746373    -60.911467                    
V 17   8137.271965  -1396.810954 -30674.398559     -0.034412                    
P 18 -15472.036131   4355.469289 -20680.560944    297.186491                    
V 18  -1369.634971 -27412.393157  -4986.419841      0.021232                    
P 19  10302.010893  11715.507539 -21663.935459   -433.451611                    
V 19 -24417.453041  11876.203992  -4790.588818     -0.025016                    
P 20  14427.529168  13115.347085  17875.820343    154.552397                    
V 20   -372.778026  23264.954647 -16514.830634      0.032022                    
P 21 -23030.944824  -1759.474483 -12914.962946   -339.271644                    
V 21 -13779.650731 -10779.470024  24396.872755     -0.021894                    
P 22 -11851.348879  17225.806482 -16096.564833    208.028890                    
V 22  -3110.346263 -20926.278794 -20014.215373      0.023732                    
P 23  18725.882852   4369.982103  18582.710726     11.075415                    
V 23 -19444.794749  12879.798657  16251.478383     -0.032713                    
P 24 -20671.356820 -15775.308707  -5631.589649    -21.868350                    
V 24   7570.941456   1001.703023 -30557.887112     -0.006600                    
P 25 -14850.954457  -2511.302668  21828.943707     10.152789                    
V 25   -322.426630 -27796.522149  -3293.563919      0.021991                    
P 26   1637.539891 -16636.412430 -21218.357084    188.808478                    
V 26  23377.363405 -10192.573131  10420.052891     -0.106931                    
P 27  -3652.969568  17872.298881 -19297.461015    -15.379229                    
V 27 -21676.764596  11496.915455  14782.982904     -0.018521                    
P 28  12511.686038 -14361.223336 -17838.989678    326.077271                    
V 28    311.319808  23932.869069 -18575.049802      0.028899                    
P 29 -22936.259829   1816.634075  13278.681334    504.703533                    
V 29  13870.707791  -9684.838540  25404.753712      0.028870                    
P 30  -7636.891355  22542.035024  11414.166714   -155.625007                    
V 30  -2103.913398 -14775.079881  27601.041085      0.007570                    
P 31  -6821.892411  13244.288001  22146.474679    332.526634                    
V 31 -23885.025148 -13976.094672   1308.278328      0.003632                    
P 32   6584.990404  23372.994765  11445.942419   -498.964508                    
V 32  -3327.617228  14057.129348 -26423.025727      0.058145                    
EOF
